{
  "norad_id": 61729,
  "name": "STARLINK-32442",
  "history": [
    {
      "epoch": "2026-03-28T22:25:32.831328Z",
      "apogee_km": 476.02469994964304,
      "perigee_km": 474.40484172508786,
      "latitude_deg": 3.9015331350884954e-05,
      "longitude_deg": -150.83069839746634,
      "height_km": 475.9550683089235,
      "semi_major_axis_km": 6853.351770837365,
      "eccentricity": 0.00011818,
      "inclination_deg": 53.1612,
      "raan_deg": 11.9038,
      "arg_perigee_deg": 78.7467,
      "mean_anomaly_deg": 281.3667,
      "mean_motion_rev_day": 15.302001
    },
    {
      "epoch": "2026-03-29T01:33:39.557088Z",
      "apogee_km": 476.05474825995134,
      "perigee_km": 474.40856910813545,
      "latitude_deg": -4.647485111054213e-05,
      "longitude_deg": 161.40515576604906,
      "height_km": 476.04294231472727,
      "semi_major_axis_km": 6853.368658684043,
      "eccentricity": 0.0001201,
      "inclination_deg": 53.1624,
      "raan_deg": 11.2965,
      "arg_perigee_deg": 83.9214,
      "mean_anomaly_deg": 276.1923,
      "mean_motion_rev_day": 15.30194444
    },
    {
      "epoch": "2026-03-30T01:04:27.395328Z",
      "apogee_km": 476.09319909392434,
      "perigee_km": 474.36779529283103,
      "latitude_deg": -5.1476380753243834e-05,
      "longitude_deg": 163.1879701259254,
      "height_km": 475.7311866129181,
      "semi_major_axis_km": 6853.367497193378,
      "eccentricity": 0.00012588,
      "inclination_deg": 53.1628,
      "raan_deg": 6.7443,
      "arg_perigee_deg": 62.5332,
      "mean_anomaly_deg": 297.5796,
      "mean_motion_rev_day": 15.30194833
    },
    {
      "epoch": "2026-03-31T11:33:38.187936Z",
      "apogee_km": 476.1970349609437,
      "perigee_km": 474.2897391992183,
      "latitude_deg": -3.0716118163793876e-05,
      "longitude_deg": -2.1925851273707155,
      "height_km": 475.8302066615895,
      "semi_major_axis_km": 6853.38038708008,
      "eccentricity": 0.00013915,
      "inclination_deg": 53.1632,
      "raan_deg": 0.075,
      "arg_perigee_deg": 70.9322,
      "mean_anomaly_deg": 289.1829,
      "mean_motion_rev_day": 15.30190516
    },
    {
      "epoch": "2026-04-01T11:04:25.924224Z",
      "apogee_km": 476.2384530616391,
      "perigee_km": 474.24274950414565,
      "latitude_deg": -5.1227757496435575e-05,
      "longitude_deg": -0.4090555905645828,
      "height_km": 475.95322315745017,
      "semi_major_axis_km": 6853.377601282892,
      "eccentricity": 0.0001456,
      "inclination_deg": 53.1624,
      "raan_deg": 355.5231,
      "arg_perigee_deg": 79.2866,
      "mean_anomaly_deg": 280.8298,
      "mean_motion_rev_day": 15.30191449
    },
    {
      "epoch": "2026-04-02T16:51:26.167680Z",
      "apogee_km": 475.9540131286367,
      "perigee_km": 474.47094830101014,
      "latitude_deg": -3.6484308648969742e-06,
      "longitude_deg": -94.14649420490369,
      "height_km": 476.03400556139667,
      "semi_major_axis_km": 6853.349480714824,
      "eccentricity": 0.0001082,
      "inclination_deg": 53.1621,
      "raan_deg": 349.7598,
      "arg_perigee_deg": 84.0365,
      "mean_anomaly_deg": 276.0759,
      "mean_motion_rev_day": 15.30200867
    },
    {
      "epoch": "2026-04-02T21:33:35.117568Z",
      "apogee_km": 475.9565473166613,
      "perigee_km": 474.4226357589441,
      "latitude_deg": 3.513300667442884e-05,
      "longitude_deg": -165.7890806176307,
      "height_km": 476.346591412286,
      "semi_major_axis_km": 6853.326591537802,
      "eccentricity": 0.00011191,
      "inclination_deg": 53.1623,
      "raan_deg": 348.8476,
      "arg_perigee_deg": 109.6884,
      "mean_anomaly_deg": 250.4238,
      "mean_motion_rev_day": 15.30208533
    },
    {
      "epoch": "2026-04-03T21:04:24.572352Z",
      "apogee_km": 475.87127235054413,
      "perigee_km": 474.66781416154936,
      "latitude_deg": -2.3244433922999477e-05,
      "longitude_deg": -164.01016058577707,
      "height_km": 476.19007646351156,
      "semi_major_axis_km": 6853.4065432560465,
      "eccentricity": 8.78e-05,
      "inclination_deg": 53.1619,
      "raan_deg": 344.2983,
      "arg_perigee_deg": 92.0696,
      "mean_anomaly_deg": 268.0405,
      "mean_motion_rev_day": 15.30181756
    },
    {
      "epoch": "2026-04-04T20:35:11.925888Z",
      "apogee_km": 476.01088877217535,
      "perigee_km": 474.3743136634048,
      "latitude_deg": -3.1217689050251e-05,
      "longitude_deg": -162.22302466375422,
      "height_km": 476.4778839716104,
      "semi_major_axis_km": 6853.32960121779,
      "eccentricity": 0.0001194,
      "inclination_deg": 53.1601,
      "raan_deg": 339.7484,
      "arg_perigee_deg": 118.2174,
      "mean_anomaly_deg": 241.8947,
      "mean_motion_rev_day": 15.30207525
    },
    {
      "epoch": "2026-04-05T09:07:38.420256Z",
      "apogee_km": 475.66174419617437,
      "perigee_km": 474.991338392565,
      "latitude_deg": 6.20757294672879e-05,
      "longitude_deg": 6.724822870468553,
      "height_km": 476.3257639961776,
      "semi_major_axis_km": 6853.463541294369,
      "eccentricity": 4.891e-05,
      "inclination_deg": 53.1606,
      "raan_deg": 337.3216,
      "arg_perigee_deg": 107.3663,
      "mean_anomaly_deg": 252.7392,
      "mean_motion_rev_day": 15.30162667
    },
    {
      "epoch": "2026-04-05T15:23:51.808704Z",
      "apogee_km": 475.6521270565827,
      "perigee_km": 475.00241864351756,
      "latitude_deg": -6.414743587674231e-06,
      "longitude_deg": -88.80212941413603,
      "height_km": 476.33245098098683,
      "semi_major_axis_km": 6853.46427285005,
      "eccentricity": 4.74e-05,
      "inclination_deg": 53.1604,
      "raan_deg": 336.108,
      "arg_perigee_deg": 109.0435,
      "mean_anomaly_deg": 251.0617,
      "mean_motion_rev_day": 15.30162422
    },
    {
      "epoch": "2026-04-06T02:22:14.173824Z",
      "apogee_km": 475.7948083359461,
      "perigee_km": 474.59794219528885,
      "latitude_deg": 3.825213752074855e-05,
      "longitude_deg": 104.03117484343126,
      "height_km": 476.0547512260834,
      "semi_major_axis_km": 6853.333375265617,
      "eccentricity": 8.732e-05,
      "inclination_deg": 53.1581,
      "raan_deg": 333.9851,
      "arg_perigee_deg": 86.1647,
      "mean_anomaly_deg": 273.9454,
      "mean_motion_rev_day": 15.30206261
    },
    {
      "epoch": "2026-04-07T08:09:13.460832Z",
      "apogee_km": 475.6887496720674,
      "perigee_km": 474.6288189460656,
      "latitude_deg": 9.060952598508358e-06,
      "longitude_deg": 10.295970757666662,
      "height_km": 475.9348423200778,
      "semi_major_axis_km": 6853.295784309066,
      "eccentricity": 7.733e-05,
      "inclination_deg": 53.1583,
      "raan_deg": 328.2201,
      "arg_perigee_deg": 76.6316,
      "mean_anomaly_deg": 283.4771,
      "mean_motion_rev_day": 15.30218851
    },
    {
      "epoch": "2026-04-07T20:41:39.208704Z",
      "apogee_km": 475.91041574392693,
      "perigee_km": 474.53014958719905,
      "latitude_deg": 3.3599372058513055e-05,
      "longitude_deg": 179.24708526869637,
      "height_km": 476.1845876323016,
      "semi_major_axis_km": 6853.357282665563,
      "eccentricity": 0.0001007,
      "inclination_deg": 53.1586,
      "raan_deg": 325.7935,
      "arg_perigee_deg": 95.4899,
      "mean_anomaly_deg": 264.6217,
      "mean_motion_rev_day": 15.30198254
    },
    {
      "epoch": "2026-04-08T07:40:01.536672Z",
      "apogee_km": 475.9589399083834,
      "perigee_km": 474.48108200254137,
      "latitude_deg": -1.3716440127349927e-05,
      "longitude_deg": 12.078375712462085,
      "height_km": 476.09058524340804,
      "semi_major_axis_km": 6853.357010955462,
      "eccentricity": 0.00010782,
      "inclination_deg": 53.1594,
      "raan_deg": 323.6685,
      "arg_perigee_deg": 87.8517,
      "mean_anomaly_deg": 272.2607,
      "mean_motion_rev_day": 15.30198345
    },
    {
      "epoch": "2026-04-09T21:17:18.269664Z",
      "apogee_km": 475.8866336553083,
      "perigee_km": 474.57531022755575,
      "latitude_deg": -4.823632255557661e-06,
      "longitude_deg": 158.93030436196963,
      "height_km": 475.99758634145445,
      "semi_major_axis_km": 6853.367971941431,
      "eccentricity": 9.567e-05,
      "inclination_deg": 53.1587,
      "raan_deg": 316.3852,
      "arg_perigee_deg": 78.4061,
      "mean_anomaly_deg": 281.7047,
      "mean_motion_rev_day": 15.30194674
    },
    {
      "epoch": "2026-04-11T20:18:54.139680Z",
      "apogee_km": 475.8623478155014,
      "perigee_km": 474.5985868545249,
      "latitude_deg": 4.964431623232263e-05,
      "longitude_deg": 162.49826742252347,
      "height_km": 475.9810708680697,
      "semi_major_axis_km": 6853.367467335012,
      "eccentricity": 9.22e-05,
      "inclination_deg": 53.1586,
      "raan_deg": 307.2839,
      "arg_perigee_deg": 76.4713,
      "mean_anomaly_deg": 283.6391,
      "mean_motion_rev_day": 15.30194843
    },
    {
      "epoch": "2026-04-13T06:48:04.321440Z",
      "apogee_km": 475.94925824310485,
      "perigee_km": 474.5096400867933,
      "latitude_deg": -4.614084143749591e-05,
      "longitude_deg": -2.884924856657573,
      "height_km": 476.0635680766913,
      "semi_major_axis_km": 6853.366449164949,
      "eccentricity": 0.00010503,
      "inclination_deg": 53.1597,
      "raan_deg": 300.6095,
      "arg_perigee_deg": 84.8803,
      "mean_anomaly_deg": 275.2317,
      "mean_motion_rev_day": 15.30195184
    }
  ]
}